[{"OBJECT_NAME":"STARLINK-3389","OBJECT_ID":"2022-005W","EPOCH":"2026-03-09T21:26:09.889728","MEAN_MOTION":15.08838248,"ECCENTRICITY":0.00011777,"INCLINATION":53.2175,"RA_OF_ASC_NODE":298.2095,"ARG_OF_PERICENTER":88.651,"MEAN_ANOMALY":271.4617,"EPHEMERIS_TYPE":0,"CLASSIFICATION_TYPE":"U","NORAD_CAT_ID":51124,"ELEMENT_SET_NO":999,"REV_AT_EPOCH":22877,"BSTAR":-7.39665e-7,"MEAN_MOTION_DOT":-3.0e-6,"MEAN_MOTION_DDOT":0},{"OBJECT_NAME":"SATCOM K2 R\/B [PAM-D2]","OBJECT_ID":"1985-109H","EPOCH":"2026-03-09T12:16:28.040160","MEAN_MOTION":2.42481815,"ECCENTRICITY":0.71155157,"INCLINATION":26.646,"RA_OF_ASC_NODE":43.2005,"ARG_OF_PERICENTER":208.726,"MEAN_ANOMALY":79.6462,"EPHEMERIS_TYPE":0,"CLASSIFICATION_TYPE":"U","NORAD_CAT_ID":16295,"ELEMENT_SET_NO":999,"REV_AT_EPOCH":27344,"BSTAR":0.00032595425,"MEAN_MOTION_DOT":-7.2e-7,"MEAN_MOTION_DDOT":0}]
